ONEWEB-0340             
1 49206U 21083W   25123.78051321  .00000009  00000+0 -89430-5 0  9993
2 49206  87.9147  56.8200 0002100  81.2349 278.9021 13.18688010176010
ONEWEB-0341             
1 49207U 21083X   25123.86429316  .00000012  00000+0 -24355-5 0  9995
2 49207  87.9148  56.8134 0001997  97.7909 262.3450 13.18686436176041
ONEWEB-0342             
1 49208U 21083Y   25124.11268878  .00000078  00000+0  16093-3 0  9998
2 49208  87.9287 355.9008 0001660  81.5508 278.5813 13.20772202184087
ONEWEB-0343             
1 49209U 21083Z   25124.08717683 -.00000034  00000+0 -11858-3 0  9996
2 49209  87.9141  56.7572 0001657  97.7580 262.3740 13.18688112177416
ONEWEB-0344             
1 49210U 21083AA  25123.81759897 -.00001382  00000+0 -38193-2 0  9998
2 49210  87.8999  41.6277 0001959  93.4705 266.6648 13.13458660177153
ONEWEB-0345             
1 49211U 21083AB  25123.80915912 -.00000453  00000+0 -12757-2 0  9996
2 49211  87.8993  41.5838 0002072  93.6685 266.4681 13.13469609177167
ONEWEB-0346             
1 49212U 21083AC  25123.86903040  .00000059  00000+0  11592-3 0  9999
2 49212  87.9145  56.8219 0002592  76.6167 283.5254 13.18684187176039
ONEWEB-0348             
1 49213U 21083AD  25124.10322110  .00000070  00000+0  14108-3 0  9990
2 49213  87.9296 355.9052 0002405  91.4491 268.6917 13.20771522184114
